IRIDIUM 921 [-]         
1 24873U 97034E   24009.91764052  .00019429  00000+0  67086-3 0  9990
2 24873  86.3848   6.3084 0007576 116.6981 243.5044 15.29807804450769
IRIDIUM 26 [-]          
1 24903U 97043A   24009.92642208  .00000593  00000+0  19690-3 0  9993
2 24903  86.3974 330.5938 0002359  83.1190 277.0275 14.36149914381946
IRIDIUM 22 [-]          
1 24907U 97043E   24009.92915671  .00000560  00000+0  18969-3 0  9996
2 24907  86.3977 333.7024 0002236  87.9959 272.1493 14.35050935381562
DUMMY MASS 1 [-]        
1 24925U 97048A   24009.94799793  .00000560  00000+0  60976-4 0  9994
2 24925  86.3338  17.5377 0006233 183.2530 176.8655 14.85991008427254
DUMMY MASS 2 [-]        
1 24926U 97048B   24009.95882620  .00000556  00000+0  60808-4 0  9997
2 24926  86.3337  19.0474 0006553 197.3770 162.7231 14.85751560427044
IRIDIUM 29 [-]          
1 24944U 97051A   24009.91267376  .00000596  00000+0  20033-3 0  9991
2 24944  86.3961   3.6536 0002273  96.1083 264.0372 14.35509438378039
IRIDIUM 33 [-]          
1 24946U 97051C   24009.93283750  .00000402  00000+0  13656-3 0  9998
2 24946  86.3876   2.9108 0007853   5.1728 354.9548 14.34218923377586
IRIDIUM 28 [-]          
1 24948U 97051E   24009.95201622  .00000562  00000+0  18505-3 0  9995
2 24948  86.3968   1.4547 0002321  78.3926 281.7531 14.36448922378562
